NORAD_CAT_ID,OBJECT_NAME,OBJECT_TYPE,EPOCH,MEAN_MOTION,ECCENTRICITY,INCLINATION,RA_OF_ASC_NODE,ARG_OF_PERICENTER,MEAN_ANOMALY,BSTAR,MEAN_MOTION_DOT,MEAN_MOTION_DDOT,TLE_LINE0,TLE_LINE1,TLE_LINE2,SEMIMAJOR_AXIS,PERIOD,APOGEE,PERIGEE,DECAYED
49459.0,STARLINK-3141,PAYLOAD,2023-12-25 02:36:10,15.08848971,0.0001669,53.2159,235.5173,115.6379,244.4786,0.00034553,5.217e-05,0.0,0 STARLINK-3141,1 49459U 21104BD  23359.10845643  .00005217  00000-0  34553-3 0  9990,2 49459  53.2159 235.5173 0001669 115.6379 244.4786 15.08848971117160,6917.853,95.437,540.873,538.563,0.0
49459.0,STARLINK-3141,PAYLOAD,2023-12-25 21:40:48,15.08841285,0.0002541,53.2157,231.9473,139.4976,220.6206,0.0001612,2.278e-05,0.0,0 STARLINK-3141,1 49459U 21104BD  23359.90333786  .00002278  00000-0  16120-3 0  9992,2 49459  53.2157 231.9473 0002541 139.4976 220.6206 15.08841285117285,6917.876,95.437,541.499,537.984,0.0
49459.0,STARLINK-3141,PAYLOAD,2023-12-26 15:10:03,15.08833036,0.0001857,53.2158,228.6738,125.6477,234.4688,0.00031066,4.659e-05,0.0,0 STARLINK-3141,1 49459U 21104BD  23360.63198496  .00004659  00000-0  31066-3 0  9992,2 49459  53.2158 228.6738 0001857 125.6477 234.4688 15.08833036117399,6917.902,95.438,541.051,538.482,0.0
49459.0,STARLINK-3141,PAYLOAD,2023-12-26 19:56:13,15.08829915,0.0001979,53.2158,227.7824,122.6743,237.444,0.00053202,8.187e-05,0.0,0 STARLINK-3141,1 49459U 21104BD  23360.83070784  .00008187  00000-0  53202-3 0  9999,2 49459  53.2158 227.7824 0001979 122.6743 237.4440 15.08829915118495,6917.911,95.438,541.145,538.407,0.0
49459.0,STARLINK-3141,PAYLOAD,2023-12-26 21:31:37,15.08809121,0.0001979,53.2163,227.4854,118.9137,241.2054,0.001032,0.00016161,0.0,0 STARLINK-3141,1 49459U 21104BD  23360.89696052  .00016161  00000-0  10320-2 0  9991,2 49459  53.2163 227.4854 0001979 118.9137 241.2054 15.08809121117430,6917.975,95.44,541.209,538.471,0.0
49459.0,STARLINK-3141,PAYLOAD,2023-12-27 15:00:50,15.08843898,0.0001578,53.2153,224.2168,74.9381,285.1785,0.00018345,2.633e-05,0.0,0 STARLINK-3141,1 49459U 21104BD  23361.62558362  .00002633  00000-0  18345-3 0  9999,2 49459  53.2153 224.2168 0001578  74.9381 285.1785 15.08843898117548,6917.868,95.437,540.825,538.642,0.0
49459.0,STARLINK-3141,PAYLOAD,2023-12-27 19:46:59,15.08844866,0.0001516,53.2149,223.3245,74.0691,286.0468,0.00019119,2.757e-05,0.0,0 STARLINK-3141,1 49459U 21104BD  23361.82430296  .00002757  00000-0  19119-3 0  9993,2 49459  53.2149 223.3245 0001516  74.0691 286.0468 15.08844866118642,6917.866,95.437,540.779,538.682,0.0
49459.0,STARLINK-3141,PAYLOAD,2023-12-27 21:22:22,15.08844831,0.0001556,53.2149,223.0273,70.4853,289.6307,0.00018249,2.618e-05,0.0,0 STARLINK-3141,1 49459U 21104BD  23361.89054282  .00002618  00000-0  18249-3 0  9996,2 49459  53.2149 223.0273 0001556  70.4853 289.6307 15.08844831117589,6917.866,95.437,540.807,538.654,0.0
49459.0,STARLINK-3141,PAYLOAD,2023-12-28 00:33:08,15.08847997,0.0001432,53.2147,222.4312,89.5557,270.5599,0.00022033,3.221e-05,0.0,0 STARLINK-3141,1 49459U 21104BD  23362.02301971  .00003221  00000-0  22033-3 0  9999,2 49459  53.2147 222.4312 0001432  89.5557 270.5599 15.08847997117600,6917.856,95.437,540.712,538.73,0.0
49459.0,STARLINK-3141,PAYLOAD,2023-12-28 19:37:48,15.08816869,0.00016,53.215,218.8615,90.2831,269.8345,0.0006381,9.876e-05,0.0,0 STARLINK-3141,1 49459U 21104BD  23362.81791683  .00009876  00000-0  63810-3 0  9999,2 49459  53.2150 218.8615 0001600  90.2831 269.8345 15.08816869118795,6917.951,95.439,540.923,538.709,0.0
49459.0,STARLINK-3141,PAYLOAD,2023-12-28 21:13:11,15.08789951,0.0001757,53.2165,218.5639,89.8121,270.3072,0.00078208,0.00012164,0.0,0 STARLINK-3141,1 49459U 21104BD  23362.88416199  .00012164  00000-0  78208-3 0  9993,2 49459  53.2165 218.5639 0001757  89.8121 270.3072 15.08789951117731,6918.033,95.441,541.114,538.683,0.0
49459.0,STARLINK-3141,PAYLOAD,2023-12-29 00:23:56,15.08826678,0.0001475,53.2165,217.9691,92.4401,267.676,0.00022123,3.233e-05,0.0,0 STARLINK-3141,1 49459U 21104BD  23363.01663001  .00003233  00000-0  22123-3 0  9997,2 49459  53.2165 217.9691 0001475  92.4401 267.6760 15.08826678118822,6917.921,95.438,540.807,538.766,0.0
49459.0,STARLINK-3141,PAYLOAD,2023-12-29 19:28:33,15.08844318,0.0001457,53.2162,214.4005,91.5333,268.5826,3.1053e-05,2.06e-06,0.0,0 STARLINK-3141,1 49459U 21104BD  23363.81150106  .00000206  00000-0  31053-4 0  9992,2 49459  53.2162 214.4005 0001457  91.5333 268.5826 15.08844318118941,6917.867,95.437,540.74,538.724,0.0
49459.0,STARLINK-3141,PAYLOAD,2023-12-29 21:03:56,15.08844494,0.0001454,53.2162,214.1031,90.6933,269.4226,2.7931e-05,1.57e-06,0.0,0 STARLINK-3141,1 49459U 21104BD  23363.87774045  .00000157  00000-0  27931-4 0  9997,2 49459  53.2162 214.1031 0001454  90.6933 269.4226 15.08844494117881,6917.867,95.437,540.738,538.726,0.0
49459.0,STARLINK-3141,PAYLOAD,2023-12-30 14:33:11,15.08837262,0.0001423,53.2159,210.8331,86.4257,273.6898,6.093e-05,6.82e-06,0.0,0 STARLINK-3141,1 49459U 21104BD  23364.60638509  .00000682  00000-0  60930-4 0  9992,2 49459  53.2159 210.8331 0001423  86.4257 273.6898 15.08837262117990,6917.889,95.438,540.738,538.769,0.0
49459.0,STARLINK-3141,PAYLOAD,2023-12-30 19:19:21,15.0883768,0.0001404,53.2159,209.9409,88.2943,271.821,5.719e-05,6.22e-06,0.0,0 STARLINK-3141,1 49459U 21104BD  23364.80510498  .00000622  00000-0  57190-4 0  9998,2 49459  53.2159 209.9409 0001404  88.2943 271.8210 15.08837680119091,6917.887,95.438,540.724,538.781,0.0
49459.0,STARLINK-3141,PAYLOAD,2023-12-30 20:54:44,15.08837623,0.0001406,53.2159,209.6435,88.4135,271.7019,5.2996e-05,5.56e-06,0.0,0 STARLINK-3141,1 49459U 21104BD  23364.87134459  .00000556  00000-0  52996-4 0  9999,2 49459  53.2159 209.6435 0001406  88.4135 271.7019 15.08837623118030,6917.888,95.438,540.725,538.78,0.0
49459.0,STARLINK-3141,PAYLOAD,2023-12-31 19:10:08,15.08838416,0.0001394,53.2157,205.4803,93.4293,266.6859,2.7349e-05,1.47e-06,0.0,0 STARLINK-3141,1 49459U 21104BD  23365.79870600  .00000147  00000-0  27349-4 0  9996,2 49459  53.2157 205.4803 0001394  93.4293 266.6859 15.08838416118179,6917.885,95.438,540.715,538.786,0.0
49459.0,STARLINK-3141,PAYLOAD,2024-01-01 19:00:55,15.08838712,0.0001363,53.2157,201.0197,95.2778,264.837,4.824e-05,4.8e-06,0.0,0 STARLINK-3141,1 49459U 21104BD  24001.79230600  .00000480  00000-0  48240-4 0  9997,2 49459  53.2157 201.0197 0001363  95.2778 264.8370 15.08838712119393,6917.884,95.438,540.692,538.806,0.0
49459.0,STARLINK-3141,PAYLOAD,2024-01-01 22:11:41,15.08839722,0.0001347,53.2157,200.4252,90.8292,269.2854,5.397e-05,5.71e-06,0.0,0 STARLINK-3141,1 49459U 21104BD  24001.92478551  .00000571  00000-0  53970-4 0  9998,2 49459  53.2157 200.4252 0001347  90.8292 269.2854 15.08839722118344,6917.881,95.438,540.678,538.814,0.0
49459.0,STARLINK-3141,PAYLOAD,2024-01-02 22:02:28,15.08842458,0.0001338,53.2157,195.9636,88.3634,271.7511,7.5889e-05,9.2e-06,0.0,0 STARLINK-3141,1 49459U 21104BD  24002.91838318  .00000920  00000-0  75889-4 0  9990,2 49459  53.2157 195.9636 0001338  88.3634 271.7511 15.08842458118494,6917.873,95.437,540.663,538.812,0.0
49459.0,STARLINK-3141,PAYLOAD,2024-01-03 18:42:29,15.08837854,0.00015,53.2163,192.0941,77.7246,282.3914,2.1394e-05,5.3e-07,0.0,0 STARLINK-3141,1 49459U 21104BD  24003.77950867  .00000053  00000-0  21394-4 0  9998,2 49459  53.2163 192.0941 0001500  77.7246 282.3914 15.08837854119692,6917.887,95.438,540.79,538.714,0.0
49459.0,STARLINK-3141,PAYLOAD,2024-01-04 12:11:43,15.08840786,0.0001428,53.2159,188.8241,87.0512,273.0644,3.5119e-05,2.71e-06,0.0,0 STARLINK-3141,1 49459U 21104BD  24004.50814601  .00000271  00000-0  35119-4 0  9997,2 49459  53.2159 188.8241 0001428  87.0512 273.0644 15.08840786118731,6917.878,95.438,540.731,538.755,0.0
49459.0,STARLINK-3141,PAYLOAD,2024-01-04 18:33:16,15.08844051,0.0001432,53.2161,187.6379,88.03,272.0856,5.2484e-05,5.48e-06,0.0,0 STARLINK-3141,1 49459U 21104BD  24004.77310287  .00000548  00000-0  52484-4 0  9998,2 49459  53.2161 187.6379 0001432  88.0300 272.0856 15.08844051119840,6917.868,95.437,540.724,538.742,0.0
49459.0,STARLINK-3141,PAYLOAD,2024-01-05 12:02:30,15.08840901,0.0001431,53.2155,184.3689,75.0408,285.0742,4.8606e-05,4.86e-06,0.0,0 STARLINK-3141,1 49459U 21104BD  24005.50174553  .00000486  00000-0  48606-4 0  9996,2 49459  53.2155 184.3689 0001431  75.0408 285.0742 15.08840901118886,6917.878,95.437,540.733,538.753,0.0
49459.0,STARLINK-3141,PAYLOAD,2024-01-05 18:24:03,15.08839662,0.0001385,53.2161,183.1784,95.3004,264.8146,3.6735e-05,2.97e-06,0.0,0 STARLINK-3141,1 49459U 21104BD  24005.76670561  .00000297  00000-0  36735-4 0  9994,2 49459  53.2161 183.1784 0001385  95.3004 264.8146 15.08839662119999,6917.881,95.438,540.705,538.788,0.0
49459.0,STARLINK-3141,PAYLOAD,2024-01-06 21:25:36,15.08839284,0.0001334,53.2157,178.1222,92.339,267.7755,3.591e-06,-2.31e-06,0.0,0 STARLINK-3141,1 49459U 21104BD  24006.89278704 -.00000231  00000-0  35910-5 0  9996,2 49459  53.2157 178.1222 0001334  92.3390 267.7755 15.08839284119093,6917.883,95.438,540.67,538.825,0.0
49459.0,STARLINK-3141,PAYLOAD,2024-01-07 14:54:51,15.08839917,0.0001296,53.216,174.8502,94.7161,265.3979,4.4559e-05,4.21e-06,0.0,0 STARLINK-3141,1 49459U 21104BD  24007.62142635  .00000421  00000-0  44559-4 0  9999,2 49459  53.2160 174.8502 0001296  94.7161 265.3979 15.08839917119208,6917.881,95.438,540.642,538.849,0.0
49459.0,STARLINK-3141,PAYLOAD,2024-01-07 16:30:14,15.08839884,0.0001295,53.216,174.5528,94.6516,265.4624,4.3125e-05,3.99e-06,0.0,0 STARLINK-3141,1 49459U 21104BD  24007.68766643  .00000399  00000-0  43125-4 0  9998,2 49459  53.2160 174.5528 0001295  94.6516 265.4624 15.08839884119217,6917.881,95.438,540.642,538.85,0.0
49459.0,STARLINK-3141,PAYLOAD,2024-01-08 11:34:52,15.08836398,0.000128,53.2162,170.9847,89.742,270.3719,3.9832e-05,3.46e-06,0.0,0 STARLINK-3141,1 49459U 21104BD  24008.48255006  .00000346  00000-0  39832-4 0  9995,2 49459  53.2162 170.9847 0001280  89.7420 270.3719 15.08836398120406,6917.891,95.438,540.642,538.871,0.0
